ONEWEB-0385             
1 49311U 21090AJ  24098.38852949  .00000026  00000+0  30873-4 0  9993
2 49311  87.9158  73.7930 0002246  78.4620 281.6766 13.20769558124096
ONEWEB-0386             
1 49312U 21090AK  24098.40588872  .00000089  00000+0  18615-3 0  9996
2 49312  87.9152  73.7888 0002109  76.8873 283.2495 13.20769144124114
ONEWEB-0387             
1 49313U 21090AL  24098.39011915 -.00000017  00000+0 -74338-4 0  9992
2 49313  87.9157  73.8499 0002347  86.1018 274.0384 13.20771054124116
ONEWEB-0388             
1 49314U 21090AM  24098.40342784  .00000112  00000+0  24836-3 0  9997
2 49314  87.9099 104.3635 0001954  84.4482 275.6874 13.19724911120792
ONEWEB-0389             
1 50469U 21132A   24098.45192123  .00000061  00000+0  12308-3 0  9996
2 50469  87.9231 165.1972 0002614 100.2994 259.8433 13.17648502112639
ONEWEB-0390             
1 50470U 21132B   24098.45349965  .00000138  00000+0  32205-3 0  9999
2 50470  87.9233 165.2048 0002381 108.7983 251.3406 13.17649905112635
ONEWEB-0391             
1 50471U 21132C   24098.60695536  .00000007  00000+0 -15081-4 0  9995
2 50471  87.9241 165.1518 0002537  95.5564 264.5857 13.17649048112653
ONEWEB-0392             
1 50472U 21132D   24098.48514104  .00000056  00000+0  11111-3 0  9995
2 50472  87.9226 165.1867 0002481 100.4127 259.7284 13.17653195112673
